{
    "links": {
        "self": "http://www.neowsapp.com/rest/v1/neo/3392300?api_key=iIulBulltgU6a56xZRHN4H3l9WmuAYTsLGpBGhQ2"
    },
    "id": "3392300",
    "neo_reference_id": "3392300",
    "name": "(2007 VB3)",
    "designation": "2007 VB3",
    "nasa_jpl_url": "http://ssd.jpl.nasa.gov/sbdb.cgi?sstr=3392300",
    "absolute_magnitude_h": 25.1,
    "estimated_diameter": {
        "kilometers": {
            "estimated_diameter_min": 0.0253837029,
            "estimated_diameter_max": 0.0567596853
        },
        "meters": {
            "estimated_diameter_min": 25.3837029364,
            "estimated_diameter_max": 56.7596852866
        },
        "miles": {
            "estimated_diameter_min": 0.0157726969,
            "estimated_diameter_max": 0.0352688224
        },
        "feet": {
            "estimated_diameter_min": 83.279867942,
            "estimated_diameter_max": 186.2194458756
        }
    },
    "is_potentially_hazardous_asteroid": false,
    "close_approach_data": [
        {
            "close_approach_date": "2007-11-16",
            "close_approach_date_full": "2007-Nov-16 13:50",
            "epoch_date_close_approach": 1195221000000,
            "relative_velocity": {
                "kilometers_per_second": "2.9386421655",
                "kilometers_per_hour": "10579.1117958148",
                "miles_per_hour": "6573.4486600161"
            },
            "miss_distance": {
                "astronomical": "0.1058460772",
                "lunar": "41.1741240308",
                "kilometers": "15834347.696975564",
                "miles": "9839007.4180642232"
            },
            "orbiting_body": "Earth"
        }
    ],
    "orbital_data": {
        "orbit_id": "8",
        "orbit_determination_date": "2017-04-06 09:05:27",
        "first_observation_date": "2007-11-02",
        "last_observation_date": "2007-12-04",
        "data_arc_in_days": 32,
        "observations_used": 24,
        "orbit_uncertainty": "7",
        "minimum_orbit_intersection": ".106688",
        "jupiter_tisserand_invariant": "4.214",
        "epoch_osculation": "2459000.5",
        "eccentricity": ".336529458693092",
        "semi_major_axis": "1.649529981429645",
        "inclination": "1.685143067680014",
        "ascending_node_longitude": "38.43704020338202",
        "orbital_period": "773.8178565410916",
        "perihelion_distance": "1.094414549681101",
        "perihelion_argument": "18.35349660841944",
        "aphelion_distance": "2.20464541317819",
        "perihelion_time": "2459067.747049446555",
        "mean_anomaly": "328.7149403491773",
        "mean_motion": ".4652257594689961",
        "equinox": "J2000",
        "orbit_class": {
            "orbit_class_type": "AMO",
            "orbit_class_description": "Near-Earth asteroid orbits similar to that of 1221 Amor",
            "orbit_class_range": "1.017 AU < q (perihelion) < 1.3 AU"
        }
    },
    "is_sentry_object": false
}